{
  "norad_id": 66578,
  "name": "STARLINK-35743",
  "history": [
    {
      "epoch": "2026-03-28T19:19:40.207872Z",
      "apogee_km": 484.03414903941575,
      "perigee_km": 481.92380698689885,
      "latitude_deg": -1.413668762162483e-05,
      "longitude_deg": 122.93485023684693,
      "height_km": 482.3756446323573,
      "semi_major_axis_km": 6861.1159780131575,
      "eccentricity": 0.00015379,
      "inclination_deg": 43.0032,
      "raan_deg": 239.0729,
      "arg_perigee_deg": 291.1358,
      "mean_anomaly_deg": 68.9329,
      "mean_motion_rev_day": 15.27603417
    },
    {
      "epoch": "2026-03-29T03:10:27.403968Z",
      "apogee_km": 483.3299342061173,
      "perigee_km": 482.6506826025843,
      "latitude_deg": -1.4205585772331281e-05,
      "longitude_deg": 3.0690577735281233,
      "height_km": 482.43164453986134,
      "semi_major_axis_km": 6861.1273084043505,
      "eccentricity": 4.95e-05,
      "inclination_deg": 42.998,
      "raan_deg": 237.226,
      "arg_perigee_deg": 349.5451,
      "mean_anomaly_deg": 10.539,
      "mean_motion_rev_day": 15.27599633
    },
    {
      "epoch": "2026-03-30T02:42:46.700928Z",
      "apogee_km": 484.2226933985512,
      "perigee_km": 481.54826683580086,
      "latitude_deg": -5.487023436685063e-05,
      "longitude_deg": 3.483411184469616,
      "height_km": 482.46099700129025,
      "semi_major_axis_km": 6861.022480117175,
      "eccentricity": 0.0001949,
      "inclination_deg": 43.0004,
      "raan_deg": 231.6875,
      "arg_perigee_deg": 278.6743,
      "mean_anomaly_deg": 81.3887,
      "mean_motion_rev_day": 15.27634643
    },
    {
      "epoch": "2026-03-30T02:42:46.701792Z",
      "apogee_km": 484.22276200877513,
      "perigee_km": 481.548198225576,
      "latitude_deg": 1.4533402227717189e-05,
      "longitude_deg": 3.4834815885550903,
      "height_km": 482.4609777552779,
      "semi_major_axis_km": 6861.022480117175,
      "eccentricity": 0.00019491,
      "inclination_deg": 43.0004,
      "raan_deg": 231.6875,
      "arg_perigee_deg": 278.6744,
      "mean_anomaly_deg": 81.3887,
      "mean_motion_rev_day": 15.27634643
    },
    {
      "epoch": "2026-03-30T10:33:34.132032Z",
      "apogee_km": 483.9308616586968,
      "perigee_km": 482.25891667194446,
      "latitude_deg": -3.5877988265380327e-06,
      "longitude_deg": -116.38610800788545,
      "height_km": 483.013533130057,
      "semi_major_axis_km": 6861.23188916532,
      "eccentricity": 0.00012184,
      "inclination_deg": 43.0016,
      "raan_deg": 229.8378,
      "arg_perigee_deg": 260.2237,
      "mean_anomaly_deg": 99.8477,
      "mean_motion_rev_day": 15.27564707
    },
    {
      "epoch": "2026-03-30T16:50:11.822208Z",
      "apogee_km": 483.97961323148684,
      "perigee_km": 482.14780986551705,
      "latitude_deg": -1.0582119714406992e-05,
      "longitude_deg": 147.72244961421444,
      "height_km": 482.9129662288232,
      "semi_major_axis_km": 6861.200711548501,
      "eccentricity": 0.00013349,
      "inclination_deg": 43.0023,
      "raan_deg": 228.3612,
      "arg_perigee_deg": 265.4685,
      "mean_anomaly_deg": 94.6014,
      "mean_motion_rev_day": 15.27575119
    },
    {
      "epoch": "2026-03-31T16:22:32.124000Z",
      "apogee_km": 484.56733961698137,
      "perigee_km": 481.24385058391545,
      "latitude_deg": -3.170563361665335e-05,
      "longitude_deg": 148.1354263372263,
      "height_km": 482.1209995702605,
      "semi_major_axis_km": 6861.042595100448,
      "eccentricity": 0.0002422,
      "inclination_deg": 43.006,
      "raan_deg": 222.8255,
      "arg_perigee_deg": 289.7935,
      "mean_anomaly_deg": 70.2655,
      "mean_motion_rev_day": 15.27627925
    },
    {
      "epoch": "2026-04-01T08:04:06.886848Z",
      "apogee_km": 483.32199196052625,
      "perigee_km": 482.7744693791183,
      "latitude_deg": -1.010039651976694e-05,
      "longitude_deg": -91.59858315278355,
      "height_km": 482.55156671525725,
      "semi_major_axis_km": 6861.185230669822,
      "eccentricity": 3.99e-05,
      "inclination_deg": 43.0029,
      "raan_deg": 219.1308,
      "arg_perigee_deg": 5.7283,
      "mean_anomaly_deg": 354.3573,
      "mean_motion_rev_day": 15.27580289
    },
    {
      "epoch": "2026-04-02T15:27:13.817952Z",
      "apogee_km": 483.50545161686296,
      "perigee_km": 482.3143738728095,
      "latitude_deg": 1.1881543848107925e-06,
      "longitude_deg": 148.94840378101006,
      "height_km": 482.4162298939086,
      "semi_major_axis_km": 6861.046912744836,
      "eccentricity": 8.68e-05,
      "inclination_deg": 43.0036,
      "raan_deg": 211.7456,
      "arg_perigee_deg": 296.9897,
      "mean_anomaly_deg": 63.0866,
      "mean_motion_rev_day": 15.27626483
    },
    {
      "epoch": "2026-04-02T15:27:13.818816Z",
      "apogee_km": 483.5057260587391,
      "perigee_km": 482.3140994309333,
      "latitude_deg": 3.992498629080621e-06,
      "longitude_deg": 148.94840316145005,
      "height_km": 482.41610536146914,
      "semi_major_axis_km": 6861.046912744836,
      "eccentricity": 8.684e-05,
      "inclination_deg": 43.0036,
      "raan_deg": 211.7456,
      "arg_perigee_deg": 296.9897,
      "mean_anomaly_deg": 63.0866,
      "mean_motion_rev_day": 15.27626483
    },
    {
      "epoch": "2026-04-03T08:42:56.183328Z",
      "apogee_km": 483.6404803813757,
      "perigee_km": 482.3290455676006,
      "latitude_deg": 2.6627733618236256e-05,
      "longitude_deg": -114.75050689920921,
      "height_km": 483.07566352615123,
      "semi_major_axis_km": 6861.121762974488,
      "eccentricity": 9.557e-05,
      "inclination_deg": 43.0035,
      "raan_deg": 207.6821,
      "arg_perigee_deg": 241.3544,
      "mean_anomaly_deg": 118.7212,
      "mean_motion_rev_day": 15.27601485
    },
    {
      "epoch": "2026-04-04T14:31:56.808768Z",
      "apogee_km": 484.16393389948917,
      "perigee_km": 481.74334112257657,
      "latitude_deg": 1.805163645380031e-05,
      "longitude_deg": 149.75844320976955,
      "height_km": 482.4089159112812,
      "semi_major_axis_km": 6861.090637511033,
      "eccentricity": 0.0001764,
      "inclination_deg": 43.0028,
      "raan_deg": 200.6682,
      "arg_perigee_deg": 285.4303,
      "mean_anomaly_deg": 74.6354,
      "mean_motion_rev_day": 15.2761188
    },
    {
      "epoch": "2026-04-05T07:47:40.466688Z",
      "apogee_km": 483.8584437132549,
      "perigee_km": 482.31329632292636,
      "latitude_deg": -6.546039825705028e-05,
      "longitude_deg": -113.94558517845167,
      "height_km": 483.15072836012405,
      "semi_major_axis_km": 6861.22287001809,
      "eccentricity": 0.0001126,
      "inclination_deg": 43.0003,
      "raan_deg": 196.6051,
      "arg_perigee_deg": 248.0762,
      "mean_anomaly_deg": 111.9969,
      "mean_motion_rev_day": 15.27567719
    },
    {
      "epoch": "2026-04-05T14:04:18.321888Z",
      "apogee_km": 484.08358031966327,
      "perigee_km": 482.0540356416632,
      "latitude_deg": -5.781583316118652e-06,
      "longitude_deg": 150.1625532924663,
      "height_km": 482.9977200933389,
      "semi_major_axis_km": 6861.205807980663,
      "eccentricity": 0.0001479,
      "inclination_deg": 43.002,
      "raan_deg": 195.1287,
      "arg_perigee_deg": 261.3879,
      "mean_anomaly_deg": 98.6805,
      "mean_motion_rev_day": 15.27573417
    },
    {
      "epoch": "2026-04-06T07:20:01.219488Z",
      "apogee_km": 483.84873426931244,
      "perigee_km": 482.1073832673974,
      "latitude_deg": -2.513690676699631e-05,
      "longitude_deg": -113.53683054643807,
      "height_km": 482.9029781295677,
      "semi_major_axis_km": 6861.115058768355,
      "eccentricity": 0.0001269,
      "inclination_deg": 43.0018,
      "raan_deg": 191.067,
      "arg_perigee_deg": 260.2023,
      "mean_anomaly_deg": 99.8685,
      "mean_motion_rev_day": 15.27603724
    },
    {
      "epoch": "2026-04-07T13:08:58.481376Z",
      "apogee_km": 483.94201681116283,
      "perigee_km": 482.11008627639967,
      "latitude_deg": 2.204157047139345e-05,
      "longitude_deg": 150.985029482373,
      "height_km": 482.69498826170917,
      "semi_major_axis_km": 6861.163051543781,
      "eccentricity": 0.0001335,
      "inclination_deg": 43.0011,
      "raan_deg": 184.0519,
      "arg_perigee_deg": 276.7612,
      "mean_anomaly_deg": 83.3088,
      "mean_motion_rev_day": 15.27587696
    },
    {
      "epoch": "2026-04-08T12:41:19.550400Z",
      "apogee_km": 484.00073257461736,
      "perigee_km": 482.1030649489985,
      "latitude_deg": -1.5152934796813063e-05,
      "longitude_deg": 151.39027924814965,
      "height_km": 482.85807231622925,
      "semi_major_axis_km": 6861.188898761808,
      "eccentricity": 0.00013829,
      "inclination_deg": 43.0008,
      "raan_deg": 178.5117,
      "arg_perigee_deg": 268.2244,
      "mean_anomaly_deg": 91.8449,
      "mean_motion_rev_day": 15.27579064
    },
    {
      "epoch": "2026-04-09T12:13:40.300608Z",
      "apogee_km": 483.9817277777811,
      "perigee_km": 482.05182244391835,
      "latitude_deg": 3.07341440170781e-05,
      "longitude_deg": 151.79814967340363,
      "height_km": 482.7524576284408,
      "semi_major_axis_km": 6861.15377511085,
      "eccentricity": 0.00014064,
      "inclination_deg": 42.9986,
      "raan_deg": 172.9727,
      "arg_perigee_deg": 272.4274,
      "mean_anomaly_deg": 87.6417,
      "mean_motion_rev_day": 15.27590794
    },
    {
      "epoch": "2026-04-10T11:46:00.840000Z",
      "apogee_km": 484.07199164670965,
      "perigee_km": 481.94366452103895,
      "latitude_deg": -1.5352788137252303e-06,
      "longitude_deg": 152.20851789259495,
      "height_km": 482.75005735488116,
      "semi_major_axis_km": 6861.144828083874,
      "eccentricity": 0.0001551,
      "inclination_deg": 43.004,
      "raan_deg": 167.4354,
      "arg_perigee_deg": 271.8872,
      "mean_anomaly_deg": 88.1802,
      "mean_motion_rev_day": 15.27593782
    }
  ]
}